NORAD_CAT_ID,OBJECT_NAME,OBJECT_TYPE,EPOCH,MEAN_MOTION,ECCENTRICITY,INCLINATION,RA_OF_ASC_NODE,ARG_OF_PERICENTER,MEAN_ANOMALY,BSTAR,MEAN_MOTION_DOT,MEAN_MOTION_DDOT,TLE_LINE0,TLE_LINE1,TLE_LINE2,SEMIMAJOR_AXIS,PERIOD,APOGEE,PERIGEE,DECAYED
50812.0,STARLINK-3338,PAYLOAD,2022-09-15 06:45:32,15.08828056,0.0001602,53.2159,106.6864,62.949,297.1666,5.384299999999999e-06,-2.02e-06,0.0,0 STARLINK-3338,1 50812U 22001K   22258.28162046 -.00000202  00000-0  53843-5 0  9992,2 50812  53.2159 106.6864 0001602  62.9490 297.1666 15.08828056 38600,6917.917,95.438,540.89,538.674,0.0
50812.0,STARLINK-3338,PAYLOAD,2022-09-15 17:53:13,15.08836358,0.0001588999999999,53.2169,104.6045,61.5776,298.5376,7.277399999999999e-05,8.7e-06,0.0,0 STARLINK-3338,1 50812U 22001K   22258.74529411  .00000870  00000-0  72774-4 0  9999,2 50812  53.2169 104.6045 0001589  61.5776 298.5376 15.08836358 39929,6917.892,95.438,540.856,538.6569999999998,0.0
50812.0,STARLINK-3338,PAYLOAD,2022-09-15 21:03:59,15.08852689,0.0001488,53.2165,104.0099,57.6928,302.4209,-0.00012847,-2.333e-05,0.0,0 STARLINK-3338,1 50812U 22001K   22258.87776963 -.00002333  00000-0 -12847-3 0  9991,2 50812  53.2165 104.0099 0001488  57.6928 302.4209 15.08852689 38699,6917.842,95.437,540.736,538.677,0.0
50812.0,STARLINK-3338,PAYLOAD,2022-09-16 12:57:51,15.08840496,0.0001809,53.2171,101.0365,61.3853,298.7321,2.9443000000000013e-05,1.81e-06,0.0,0 STARLINK-3338,1 50812U 22001K   22259.54017505  .00000181  00000-0  29443-4 0  9994,2 50812  53.2171 101.0365 0001809  61.3853 298.7321 15.08840496 38791,6917.879,95.438,540.995,538.492,0.0
50812.0,STARLINK-3338,PAYLOAD,2022-09-16 17:44:01,15.08828325,0.0001715,53.2173,100.1439,61.3297,298.7868,0.00011611,1.56e-05,0.0,0 STARLINK-3338,1 50812U 22001K   22259.73890294  .00001560  00000-0  11611-3 0  9998,2 50812  53.2173 100.1439 0001715  61.3297 298.7868 15.08828325 38820,6917.916,95.438,540.967,538.595,0.0
50812.0,STARLINK-3338,PAYLOAD,2022-09-17 00:05:34,15.08818026,0.0001776,53.2171,98.9549,58.6272,301.4894,2.9379e-05,1.79e-06,0.0,0 STARLINK-3338,1 50812U 22001K   22260.00387528  .00000179  00000-0  29379-4 0  9997,2 50812  53.2171  98.9549 0001776  58.6272 301.4894 15.08818026 38865,6917.948,95.439,541.0409999999998,538.5840000000002,0.0
50812.0,STARLINK-3338,PAYLOAD,2022-09-17 19:10:12,15.08830112,0.0001723,53.2172,95.3867,58.4022,301.7138,-4.2736e-06,-3.56e-06,0.0,0 STARLINK-3338,1 50812U 22001K   22260.79875628 -.00000356  00000-0 -42736-5 0  9998,2 50812  53.2172  95.3867 0001723  58.4022 301.7138 15.08830112 40231,6917.911,95.438,540.9680000000002,538.5840000000002,0.0
50812.0,STARLINK-3338,PAYLOAD,2022-09-17 20:45:35,15.08831026,0.0001817,53.217,95.0892,61.5511,298.5664,-8.971900000000001e-06,-4.31e-06,0.0,0 STARLINK-3338,1 50812U 22001K   22260.86499628 -.00000431  00000-0 -89719-5 0  9994,2 50812  53.2170  95.0892 0001817  61.5511 298.5664 15.08831026 38998,6917.908,95.438,541.03,538.516,0.0
50812.0,STARLINK-3338,PAYLOAD,2022-09-18 12:39:26,15.08834461,0.0001698,53.2169,92.1147,59.2469,300.869,0.00010132,1.325e-05,0.0,0 STARLINK-3338,1 50812U 22001K   22261.52739469  .00001325  00000-0  10132-3 0  9990,2 50812  53.2169  92.1147 0001698  59.2469 300.8690 15.08834461 39094,6917.897,95.438,540.937,538.5880000000002,0.0
50812.0,STARLINK-3338,PAYLOAD,2022-09-18 19:00:59,15.08845144,0.0001784,53.2168,90.9257,55.4142,304.7018,2.2562e-05,7.1e-07,0.0,0 STARLINK-3338,1 50812U 22001K   22261.79235082  .00000071  00000-0  22562-4 0  9999,2 50812  53.2168  90.9257 0001784  55.4142 304.7018 15.08845144 40384,6917.865,95.437,540.964,538.496,0.0
50812.0,STARLINK-3338,PAYLOAD,2022-09-18 20:36:22,15.08838275,0.000174,53.2164,90.6281,58.6751,301.4411,0.00024055,3.542e-05,0.0,0 STARLINK-3338,1 50812U 22001K   22261.85859607  .00003542  00000-0  24055-3 0  9995,2 50812  53.2164  90.6281 0001740  58.6751 301.4411 15.08838275 40396,6917.886,95.438,540.9540000000002,538.547,0.0
50812.0,STARLINK-3338,PAYLOAD,2022-09-19 10:54:50,15.08844612,0.0001761999999999,53.2166,87.9518,57.7187,302.3976,0.00035191,5.318e-05,0.0,0 STARLINK-3338,1 50812U 22001K   22262.45475501  .00005318  00000-0  35191-3 0  9995,2 50812  53.2166  87.9518 0001762  57.7187 302.3976 15.08844612 39236,6917.866,95.437,540.95,538.512,0.0
50812.0,STARLINK-3338,PAYLOAD,2022-09-19 17:16:23,15.08850321,0.0001774999999999,53.2168,86.7624,58.0783,302.0381,0.00035128,5.309e-05,0.0,0 STARLINK-3338,1 50812U 22001K   22262.71971189  .00005309  00000-0  35128-3 0  9997,2 50812  53.2168  86.7624 0001775  58.0783 302.0381 15.08850321 39278,6917.849,95.437,540.942,538.486,0.0
50812.0,STARLINK-3338,PAYLOAD,2022-09-20 10:45:37,15.08856369,0.0001821,53.2171,83.4916,60.4551,299.6622,0.00029374,4.392e-05,0.0,0 STARLINK-3338,1 50812U 22001K   22263.44834493  .00004392  00000-0  29374-3 0  9991,2 50812  53.2171  83.4916 0001821  60.4551 299.6622 15.08856369 40631,6917.83,95.437,540.955,538.436,0.0
50812.0,STARLINK-3338,PAYLOAD,2022-09-20 12:21:00,15.08856751,0.000182,53.2169,83.1939,58.9412,301.1759,0.00022208,3.2500000000000004e-05,0.0,0 STARLINK-3338,1 50812U 22001K   22263.51458433  .00003250  00000-0  22208-3 0  9996,2 50812  53.2169  83.1939 0001820  58.9412 301.1759 15.08856751 39393,6917.829000000002,95.436,540.953,538.435,0.0
50812.0,STARLINK-3338,PAYLOAD,2022-09-20 20:17:55,15.0885398,0.0001757,53.2164,81.7061,58.529,301.5873,0.00014063,1.952e-05,0.0,0 STARLINK-3338,1 50812U 22001K   22263.84578193  .00001952  00000-0  14063-3 0  9995,2 50812  53.2164  81.7061 0001757  58.5290 301.5873 15.08853980 39445,6917.8380000000025,95.437,540.918,538.487,0.0
50812.0,STARLINK-3338,PAYLOAD,2022-09-20 21:53:19,15.08841031,0.0001774,53.2165,81.4089,58.6721,301.4445,-5.5865e-05,-1.177e-05,0.0,0 STARLINK-3338,1 50812U 22001K   22263.91202785 -.00001177  00000-0 -55865-4 0  9991,2 50812  53.2165  81.4089 0001774  58.6721 301.4445 15.08841031 40701,6917.877,95.437,540.969,538.515,0.0
50812.0,STARLINK-3338,PAYLOAD,2022-09-21 20:08:42,15.08846767,0.0001644,53.2171,77.2458,58.1601,301.9551,-1.444e-05,-5.18e-06,0.0,0 STARLINK-3338,1 50812U 22001K   22264.83938450 -.00000518  00000-0 -14440-4 0  9990,2 50812  53.2171  77.2458 0001644  58.1601 301.9551 15.08846767 39598,6917.86,95.437,540.862,538.587,0.0
50812.0,STARLINK-3338,PAYLOAD,2022-09-22 16:48:43,15.08842556,0.0001661,53.2172,73.3801,58.3619,301.7535,4.0311e-05,3.54e-06,0.0,0 STARLINK-3338,1 50812U 22001K   22265.70050452  .00000354  00000-0  40311-4 0  9996,2 50812  53.2172  73.3801 0001661  58.3619 301.7535 15.08842556 40974,6917.873000000001,95.437,540.887,538.589,0.0
50812.0,STARLINK-3338,PAYLOAD,2022-09-23 10:17:58,15.08834805,0.0001635,53.2174,70.1091,58.1193,301.9958,0.00010516,1.386e-05,0.0,0 STARLINK-3338,1 50812U 22001K   22266.42914965  .00001386  00000-0  10516-3 0  9993,2 50812  53.2174  70.1091 0001635  58.1193 301.9958 15.08834805 39830,6917.896,95.438,540.8919999999998,538.63,0.0
50812.0,STARLINK-3338,PAYLOAD,2022-09-23 18:14:53,15.0884176,0.0001575,53.2176,68.6222,56.2722,303.842,0.00010646,1.407e-05,0.0,0 STARLINK-3338,1 50812U 22001K   22266.76034563  .00001407  00000-0  10646-3 0  9995,2 50812  53.2176  68.6222 0001575  56.2722 303.8420 15.08841760 41139,6917.875,95.437,540.83,538.65,0.0
50812.0,STARLINK-3338,PAYLOAD,2022-09-24 18:05:41,15.08839458,0.0001631,53.2181,64.1622,56.3316,303.7831,0.00013169,1.808e-05,0.0,0 STARLINK-3338,1 50812U 22001K   22267.75394830  .00001808  00000-0  13169-3 0  9999,2 50812  53.2181  64.1622 0001631  56.3316 303.7831 15.08839458 41285,6917.882,95.438,540.875,538.619,0.0
50812.0,STARLINK-3338,PAYLOAD,2022-09-25 09:59:33,15.08833955,0.0001291,53.2178,61.1877,67.3803,292.7326,7.3491e-06,-1.71e-06,0.0,0 STARLINK-3338,1 50812U 22001K   22268.41635679 -.00000171  00000-0  73491-5 0  9991,2 50812  53.2178  61.1877 0001291  67.3803 292.7326 15.08833955 41388,6917.899,95.438,540.6569999999998,538.871,0.0
50812.0,STARLINK-3338,PAYLOAD,2022-09-25 17:56:29,15.08831089,0.0001546,53.2177,59.7011,54.3025,305.8111,-2.4095e-05,-6.71e-06,0.0,0 STARLINK-3338,1 50812U 22001K   22268.74756151 -.00000671  00000-0 -24095-4 0  9997,2 50812  53.2177  59.7011 0001546  54.3025 305.8111 15.08831089 40186,6917.908,95.438,540.842,538.703,0.0
50812.0,STARLINK-3338,PAYLOAD,2022-09-26 09:50:20,15.08837617,0.0001595,53.2177,56.7282,52.727,307.3867,4.776100000000001e-05,4.72e-06,0.0,0 STARLINK-3338,1 50812U 22001K   22269.40995914  .00000472  00000-0  47761-4 0  9995,2 50812  53.2177  56.7282 0001595  52.7270 307.3867 15.08837617 40280,6917.888000000001,95.438,540.856,538.649,0.0
50812.0,STARLINK-3338,PAYLOAD,2022-09-26 16:11:52,15.0884032,0.0001615,53.2176,55.5385,52.1767,307.9371,9.6988e-05,1.256e-05,0.0,0 STARLINK-3338,1 50812U 22001K   22269.67491648  .00001256  00000-0  96988-4 0  9995,2 50812  53.2176  55.5385 0001615  52.1767 307.9371 15.08840320 41572,6917.879,95.438,540.862,538.627,0.0
50812.0,STARLINK-3338,PAYLOAD,2022-09-27 08:05:43,15.088439,0.0001652,53.2178,52.5653,50.351000000000006,309.7628,0.00023175,3.403e-05,0.0,0 STARLINK-3338,1 50812U 22001K   22270.33731201  .00003403  00000-0  23175-3 0  9995,2 50812  53.2178  52.5653 0001652  50.3510 309.7628 15.08843900 40421,6917.868,95.437,540.876,538.591,0.0
50812.0,STARLINK-3338,PAYLOAD,2022-09-27 16:02:39,15.08841518,0.0001671,53.2179,51.0781,51.5196,308.5946,0.00019865,2.875e-05,0.0,0 STARLINK-3338,1 50812U 22001K   22270.66851543  .00002875  00000-0  19865-3 0  9996,2 50812  53.2179  51.0781 0001671  51.5196 308.5946 15.08841518 40470,6917.876,95.437,540.8969999999998,538.585,0.0
50812.0,STARLINK-3338,PAYLOAD,2022-09-28 09:31:54,15.08848008,0.0001715,53.2179,47.807,52.7529,307.362,0.0001053,1.389e-05,0.0,0 STARLINK-3338,1 50812U 22001K   22271.39715337  .00001389  00000-0  10530-3 0  9996,2 50812  53.2179  47.8070 0001715  52.7529 307.3620 15.08848008 41834,6917.856,95.437,540.9069999999998,538.534,0.0
